EUTELSAT 21B            
1 38992U 12062B   25277.78619067  .00000131  00000+0  00000+0 0  9992
2 38992   0.0721  11.5145 0002899 189.7859 117.0445  1.00273486 47267
EUTELSAT 70B            
1 39020U 12069A   25277.72448374 -.00000043  00000+0  00000+0 0  9990
2 39020   0.0660 358.9748 0004147 196.3547 149.6533  1.00271309 46940
EUTELSAT 117 WEST A     
1 39122U 13012A   25277.61597659 -.00000012  00000+0  00000+0 0  9997
2 39122   0.0458  50.0922 0002674 141.3020 287.1228  1.00271514 45879
EUTELSAT 7B             
1 39163U 13022A   25277.78324399  .00000049  00000+0  00000+0 0  9999
2 39163   0.0704  14.1056 0001015 306.2587 342.3365  1.00272772 45395
EXPRESS-AT1             
1 39612U 14010A   25277.86436436  .00000079  00000+0  00000+0 0  9994
2 39612   0.0176 208.8604 0000476 275.9274 256.2165  1.00273152 42259
EXPRESS-AT2             
1 39613U 14010B   25277.88100444 -.00000280  00000+0  00000+0 0  9999
2 39613   0.0185 223.2754 0000532 243.3028   4.2616  1.00272138 41946
EUTELSAT 3B             
1 39773U 14030A   25277.78255066  .00000021  00000+0  00000+0 0  9990
2 39773   0.0650 359.8324 0004516 188.5817 110.1313  1.00271098 41508
EUTELSAT 115 WEST B     
1 40425U 15010B   25277.46429141 -.00000024  00000+0  00000+0 0  9991
2 40425   0.0191  48.9321 0000078 172.2644 204.4612  1.00271318 38829
